     2.11           GLONASS NAV DATA                        RINEX VERSION / TYPE
CONVBIN 2.4.3                           20210713 200003 UTC PGM / RUN BY / DATE 
log: ./LOGS/2021_7_13_19_00_00.ubx                          COMMENT             
format: u-blox                                              COMMENT             
GNSS logger application                                     COMMENT             
                                                            END OF HEADER       
 8 21  7 13 19 15  0.0 -.599082559347E-04  .000000000000E+00  .685500000000E+05
     .921028027344E+04 -.925846099854E-01 -.931322574615E-09  .000000000000E+00
     .116400175781E+05  .283316135406E+01  .000000000000E+00  .600000000000E+01
     .207959516602E+05 -.155065727234E+01 -.279396772385E-08  .000000000000E+00
10 21  7 13 19 15  0.0 -.728536397219E-04  .000000000000E+00  .685500000000E+05
     .116597924805E+05 -.176092052460E+01 -.931322574615E-09  .000000000000E+00
     .163109282227E+05 -.124921798706E+01  .000000000000E+00 -.700000000000E+01
     .157256313477E+05  .260681152344E+01 -.279396772385E-08  .000000000000E+00
 9 21  7 13 19 15  0.0  .274367630482E-05  .181898940355E-11  .685500000000E+05
    -.409702294922E+04 -.262202930450E+01  .000000000000E+00  .000000000000E+00
     .107148159180E+05 -.168064117432E+01  .000000000000E+00 -.200000000000E+01
     .228075620117E+05  .311818122864E+00 -.279396772385E-08  .000000000000E+00
 7 21  7 13 19 15  0.0 -.420482829213E-04  .000000000000E+00  .685500000000E+05
     .272652539062E+04  .818510055542E-01 -.931322574615E-09  .000000000000E+00
     .238345249023E+05  .118576240540E+01  .279396772385E-08  .500000000000E+01
     .864664697266E+04 -.331303310394E+01 -.186264514923E-08  .000000000000E+00
11 21  7 13 19 15  0.0 -.214381143451E-04 -.363797880709E-11  .685500000000E+05
     .218302695312E+05  .226736068726E+00 -.186264514923E-08  .400000000000E+01
     .131608090820E+05 -.619020462036E-01  .000000000000E+00  .000000000000E+00
    -.114356689453E+04  .356922531128E+01  .000000000000E+00  .000000000000E+00
24 21  7 13 19 15  0.0  .503221526742E-04  .181898940355E-11  .685800000000E+05
     .164267294922E+05  .153243064880E+01  .000000000000E+00  .000000000000E+00
    -.146013876953E+05 -.901639938354E+00 -.465661287308E-08  .200000000000E+01
     .129407924805E+05 -.296605014801E+01  .000000000000E+00  .000000000000E+00
 1 21  7 13 19 15  0.0  .822488218546E-04  .000000000000E+00  .692400000000E+05
     .109853813477E+05 -.140969276428E+00  .000000000000E+00  .000000000000E+00
    -.522248095703E+04  .306554889679E+01 -.372529029846E-08  .100000000000E+01
     .224222387695E+05  .784687995911E+00 -.931322574615E-09  .000000000000E+00
23 21  7 13 19 15  0.0 -.938214361668E-05  .000000000000E+00  .694500000000E+05
     .230636254883E+05 -.185712814331E+00  .000000000000E+00  .000000000000E+00
    -.108750610352E+05 -.184897422791E+00 -.279396772385E-08  .300000000000E+01
    -.644678222656E+03 -.360816097260E+01  .931322574615E-09  .000000000000E+00
17 21  7 13 19 15  0.0  .440786592662E-03  .272848410532E-11  .701700000000E+05
     .238427734375E+02  .276967144012E+01  .931322574615E-09  .000000000000E+00
    -.115588325195E+05 -.143027877808E+01 -.372529029846E-08  .400000000000E+01
     .227342133789E+05 -.733951568604E+00 -.931322574615E-09  .000000000000E+00
 8 21  7 13 19 45  0.0 -.599063932896E-04  .000000000000E+00  .702000000000E+05
     .940134277344E+04  .281850814819E+00 -.931322574615E-09  .000000000000E+00
     .163296791992E+05  .233479595184E+01  .931322574615E-09  .600000000000E+01
     .172404174805E+05 -.237457180023E+01 -.279396772385E-08  .000000000000E+00
10 21  7 13 19 45  0.0 -.728555023670E-04  .000000000000E+00  .702000000000E+05
     .787398486328E+04 -.242237758636E+01 -.931322574615E-09  .000000000000E+00
     .140602343750E+05 -.120972156525E+01  .000000000000E+00 -.700000000000E+01
     .197474331055E+05  .183288288116E+01 -.279396772385E-08  .000000000000E+00
11 21  7 13 19 45  0.0 -.214455649257E-04 -.363797880709E-11  .702000000000E+05
     .215273994141E+05 -.578688621521E+00 -.186264514923E-08  .400000000000E+01
     .126624057617E+05 -.453691482544E+00  .931322574615E-09  .000000000000E+00
     .524228076172E+04  .348013877869E+01 -.931322574615E-09  .000000000000E+00
 9 21  7 13 19 45  0.0  .274740159512E-05  .181898940355E-11  .702000000000E+05
    -.901224609375E+04 -.279396724701E+01  .000000000000E+00  .000000000000E+00
     .803328369141E+04 -.127635192871E+01  .000000000000E+00 -.200000000000E+01
     .224819331055E+05 -.671506881714E+00 -.279396772385E-08  .000000000000E+00
 7 21  7 13 19 45  0.0 -.420482829213E-04  .000000000000E+00  .702000000000E+05
     .300190087891E+04  .184294700623E+00 -.931322574615E-09  .000000000000E+00
     .251957968750E+05  .314357757568E+00  .372529029846E-08  .500000000000E+01
     .242560205078E+04 -.355433177948E+01 -.186264514923E-08  .000000000000E+00
17 21  7 13 19 45  0.0  .440793111920E-03  .272848410532E-11  .703200000000E+05
     .459953125000E+04  .227849960327E+01  .000000000000E+00  .000000000000E+00
    -.143756284180E+05 -.166201782227E+01 -.465661287308E-08  .400000000000E+01
     .205508325195E+05 -.167638301849E+01  .000000000000E+00  .000000000000E+00
24 21  7 13 19 45  0.0  .503249466419E-04  .181898940355E-11  .703500000000E+05
     .184621513672E+05  .727329254150E+00  .000000000000E+00  .000000000000E+00
    -.160649541016E+05 -.680924415588E+00 -.372529029846E-08  .200000000000E+01
     .717035742188E+04 -.340391540527E+01  .931322574615E-09  .000000000000E+00
 2 21  7 13 19 45  0.0  .485910102725E-03  .181898940355E-11  .703500000000E+05
     .571147119141E+04  .106334686279E-02  .000000000000E+00  .000000000000E+00
    -.199193676758E+05  .204239559174E+01 -.465661287308E-08 -.400000000000E+01
     .149588808594E+05  .272164249420E+01  .000000000000E+00  .000000000000E+00
18 21  7 13 19 45  0.0  .833040103316E-04  .909494701773E-12  .704400000000E+05
    -.110404716797E+05  .259897613525E+01  .931322574615E-09  .000000000000E+00
    -.478079492188E+04 -.166011238098E+01 -.186264514923E-08 -.300000000000E+01
     .224918300781E+05  .927426338196E+00 -.186264514923E-08  .000000000000E+00
 1 21  7 13 19 45  0.0  .822497531772E-04  .000000000000E+00  .705300000000E+05
     .111346679688E+05  .308649063110E+00 -.931322574615E-09  .000000000000E+00
     .395411621094E+03  .312525463104E+01 -.186264514923E-08  .100000000000E+01
     .229499750977E+05 -.202068328857E+00 -.186264514923E-08  .000000000000E+00
12 21  7 13 19 45  0.0  .245026312768E-03  .272848410532E-11  .717000000000E+05
     .218000180664E+05  .162938213348E+01 -.186264514923E-08  .000000000000E+00
     .367998730469E+04  .630757331848E+00  .931322574615E-09 -.100000000000E+01
    -.126793940430E+05  .297836208344E+01  .931322574615E-09  .000000000000E+00
